[{"OBJECT_NAME":"STARLINK-32509","OBJECT_ID":"2024-216L","EPOCH":"2026-03-09T22:34:20.726688","MEAN_MOTION":15.27606457,"ECCENTRICITY":0.00022668,"INCLINATION":43.0015,"RA_OF_ASC_NODE":254.9348,"ARG_OF_PERICENTER":263.1184,"MEAN_ANOMALY":96.941,"EPHEMERIS_TYPE":0,"CLASSIFICATION_TYPE":"U","NORAD_CAT_ID":62042,"ELEMENT_SET_NO":999,"REV_AT_EPOCH":7391,"BSTAR":0.00099152356,"MEAN_MOTION_DOT":0.00027146,"MEAN_MOTION_DDOT":0},{"OBJECT_NAME":"SCS-01 G","OBJECT_ID":"2025-100G","EPOCH":"2026-03-09T22:06:35.300160","MEAN_MOTION":15.25626619,"ECCENTRICITY":0.00115239,"INCLINATION":97.3761,"RA_OF_ASC_NODE":145.2582,"ARG_OF_PERICENTER":298.6971,"MEAN_ANOMALY":61.3108,"EPHEMERIS_TYPE":0,"CLASSIFICATION_TYPE":"U","NORAD_CAT_ID":63988,"ELEMENT_SET_NO":999,"REV_AT_EPOCH":4562,"BSTAR":0.00025501168,"MEAN_MOTION_DOT":6.423e-5,"MEAN_MOTION_DDOT":0}]
